NORAD_CAT_ID,OBJECT_NAME,OBJECT_TYPE,EPOCH,MEAN_MOTION,ECCENTRICITY,INCLINATION,RA_OF_ASC_NODE,ARG_OF_PERICENTER,MEAN_ANOMALY,BSTAR,MEAN_MOTION_DOT,MEAN_MOTION_DDOT,TLE_LINE0,TLE_LINE1,TLE_LINE2,SEMIMAJOR_AXIS,PERIOD,APOGEE,PERIGEE,DECAYED
53426.0,STARLINK-4558,PAYLOAD,2023-12-22 15:22:25,15.08853019,0.000132,53.2161,131.7503,78.3526,281.7614,0.00016437,2.33e-05,0.0,0 STARLINK-4558,1 53426U 22097AQ  23356.64056843  .00002330  00000-0  16437-3 0  9997,2 53426  53.2161 131.7503 0001320  78.3526 281.7614 15.08853019 76313,6917.841,95.437,540.619,538.792,0.0
53426.0,STARLINK-4558,PAYLOAD,2023-12-23 08:51:39,15.08844685,0.0001374,53.2161,128.4839,82.7164,277.3984,3.2244e-05,2.25e-06,0.0,0 STARLINK-4558,1 53426U 22097AQ  23357.36920935  .00000225  00000-0  32244-4 0  9995,2 53426  53.2161 128.4839 0001374  82.7164 277.3984 15.08844685 76426,6917.866,95.437,540.682,538.781,0.0
53426.0,STARLINK-4558,PAYLOAD,2023-12-23 13:37:49,15.08843979,0.0001314,53.216,127.5888,90.019,270.0953,1.9629e-05,2.5e-07,0.0,0 STARLINK-4558,1 53426U 22097AQ  23357.56792972  .00000025  00000-0  19629-4 0  9995,2 53426  53.2160 127.5888 0001314  90.0190 270.0953 15.08843979 76931,6917.868,95.437,540.642,538.824,0.0
53426.0,STARLINK-4558,PAYLOAD,2023-12-23 15:13:12,15.08844782,0.0001333,53.2158,127.2912,82.2993,277.815,2.5955e-05,1.25e-06,0.0,0 STARLINK-4558,1 53426U 22097AQ  23357.63416944  .00000125  00000-0  25955-4 0  9995,2 53426  53.2158 127.2912 0001333  82.2993 277.8150 15.08844782 76946,6917.866,95.437,540.653,538.809,0.0
53426.0,STARLINK-4558,PAYLOAD,2023-12-24 11:53:13,15.08843534,0.0001314,53.2161,123.425,88.8585,271.2557,0.00017046,2.426e-05,0.0,0 STARLINK-4558,1 53426U 22097AQ  23358.49529003  .00002426  00000-0  17046-3 0  9998,2 53426  53.2161 123.4250 0001314  88.8585 271.2557 15.08843534 76595,6917.87,95.437,540.644,538.826,0.0
53426.0,STARLINK-4558,PAYLOAD,2023-12-24 13:28:36,15.08844845,0.0001378,53.2162,123.1281,80.352,279.7628,0.00018175,2.606e-05,0.0,0 STARLINK-4558,1 53426U 22097AQ  23358.56152970  .00002606  00000-0  18175-3 0  9995,2 53426  53.2162 123.1281 0001378  80.3520 279.7628 15.08844845 77086,6917.866,95.437,540.684,538.777,0.0
53426.0,STARLINK-4558,PAYLOAD,2023-12-24 18:14:45,15.08847956,0.0001362,53.2161,122.2337,90.0175,270.0973,0.00044503,6.803e-05,0.0,0 STARLINK-4558,1 53426U 22097AQ  23358.76024741  .00006803  00000-0  44503-3 0  9998,2 53426  53.2161 122.2337 0001362  90.0175 270.0973 15.08847956 77111,6917.856,95.437,540.663,538.779,0.0
53426.0,STARLINK-4558,PAYLOAD,2023-12-25 14:54:46,15.08840661,0.0001348,53.2162,118.3686,87.9339,272.1808,8.5576e-05,1.074e-05,0.0,0 STARLINK-4558,1 53426U 22097AQ  23359.62137122  .00001074  00000-0  85576-4 0  9993,2 53426  53.2162 118.3686 0001348  87.9339 272.1808 15.08840661 77246,6917.878,95.438,540.676,538.811,0.0
53426.0,STARLINK-4558,PAYLOAD,2023-12-26 14:45:33,15.08840477,0.0001346,53.2162,113.9066,98.8304,261.284,-1.4669e-05,-5.21e-06,0.0,0 STARLINK-4558,1 53426U 22097AQ  23360.61497243 -.00000521  00000-0 -14669-4 0  9990,2 53426  53.2162 113.9066 0001346  98.8304 261.2840 15.08840477 77396,6917.879,95.438,540.675,538.813,0.0
53426.0,STARLINK-4558,PAYLOAD,2023-12-27 11:25:34,15.08838187,0.0001362,53.2161,110.0412,92.9216,267.1932,0.00022591,3.309e-05,0.0,0 STARLINK-4558,1 53426U 22097AQ  23361.47609579  .00003309  00000-0  22591-3 0  9999,2 53426  53.2161 110.0412 0001362  92.9216 267.1932 15.08838187 77047,6917.886,95.438,540.693,538.809,0.0
53426.0,STARLINK-4558,PAYLOAD,2023-12-27 13:00:57,15.08844367,0.0001357,53.2163,109.7442,87.9356,272.1791,0.00017676,2.527e-05,0.0,0 STARLINK-4558,1 53426U 22097AQ  23361.54233306  .00002527  00000-0  17676-3 0  9997,2 53426  53.2163 109.7442 0001357  87.9356 272.1791 15.08844367 77530,6917.867,95.437,540.671,538.793,0.0
53426.0,STARLINK-4558,PAYLOAD,2023-12-28 11:16:21,15.08836814,0.0001369,53.2162,105.5814,80.7203,279.3943,1.1952e-05,-9.8e-07,0.0,0 STARLINK-4558,1 53426U 22097AQ  23362.46969872 -.00000098  00000-0  11952-4 0  9997,2 53426  53.2162 105.5814 0001369  80.7203 279.3943 15.08836814 77199,6917.89,95.438,540.702,538.808,0.0
53426.0,STARLINK-4558,PAYLOAD,2023-12-28 14:27:08,15.08839107,0.0001369,53.2169,104.9859,74.4268,285.6875,9.0061e-05,1.146e-05,0.0,0 STARLINK-4558,1 53426U 22097AQ  23362.60218008  .00001146  00000-0  90061-4 0  9993,2 53426  53.2169 104.9859 0001369  74.4268 285.6875 15.08839107 77696,6917.883,95.438,540.695,538.801,0.0
53426.0,STARLINK-4558,PAYLOAD,2023-12-29 14:17:55,15.08841714,0.0001536,53.218,100.5287,72.7924,287.3237,8.5034e-05,1.066e-05,0.0,0 STARLINK-4558,1 53426U 22097AQ  23363.59578038  .00001066  00000-0  85034-4 0  9999,2 53426  53.2180 100.5287 0001536  72.7924 287.3237 15.08841714 77847,6917.875,95.437,540.803,538.678,0.0
53426.0,STARLINK-4558,PAYLOAD,2023-12-30 14:08:42,15.08846119,0.0001575,53.2182,96.0688,70.3242,289.792,0.00012353,1.679e-05,0.0,0 STARLINK-4558,1 53426U 22097AQ  23364.58937676  .00001679  00000-0  12353-3 0  9999,2 53426  53.2182  96.0688 0001575  70.3242 289.7920 15.08846119 77998,6917.862,95.437,540.816,538.637,0.0
53426.0,STARLINK-4558,PAYLOAD,2023-12-30 15:44:04,15.08850024,0.0001527,53.2179,95.7703,70.6094,289.5063,0.00015674,2.208e-05,0.0,0 STARLINK-4558,1 53426U 22097AQ  23364.65561320  .00002208  00000-0  15674-3 0  9994,2 53426  53.2179  95.7703 0001527  70.6094 289.5063 15.08850024 77528,6917.85,95.437,540.771,538.658,0.0
53426.0,STARLINK-4558,PAYLOAD,2023-12-31 12:24:06,15.08839741,0.0001449,53.2183,91.9033,95.5336,264.5822,1.8122e-05,0.0,0.0,0 STARLINK-4558,1 53426U 22097AQ  23365.51674253  .00000000  00000-0  18122-4 0  9990,2 53426  53.2183  91.9033 0001449  95.5336 264.5822 15.08839741 77658,6917.881,95.438,540.749,538.744,0.0
53426.0,STARLINK-4558,PAYLOAD,2024-01-01 12:14:52,15.08852437,0.0001479,53.2185,87.4435,82.3766,277.7394,5.5269e-05,5.92e-06,0.0,0 STARLINK-4558,1 53426U 22097AQ  24001.51033369  .00000592  00000-0  55269-4 0  9994,2 53426  53.2185  87.4435 0001479  82.3766 277.7394 15.08852437 77804,6917.842,95.437,540.731,538.684,0.0
53426.0,STARLINK-4558,PAYLOAD,2024-01-01 15:25:38,15.08854291,0.000138,53.2179,86.8481,82.9147,277.2002,9.0926e-05,1.16e-05,0.0,0 STARLINK-4558,1 53426U 22097AQ  24001.64281062  .00001160  00000-0  90926-4 0  9994,2 53426  53.2179  86.8481 0001380  82.9147 277.2002 15.08854291 78308,6917.837,95.437,540.656,538.747,0.0
53426.0,STARLINK-4558,PAYLOAD,2024-01-02 05:44:08,15.08840016,0.0001495,53.2182,84.164,130.3775,229.7348,-1.5664e-05,-5.37e-06,0.0,0 STARLINK-4558,1 53426U 22097AQ  24002.23898155 -.00000537  00000-0 -15664-4 0  9992,2 53426  53.2182  84.1640 0001495 130.3775 229.7348 15.08840016 77913,6917.88,95.438,540.78,538.711,0.0
53426.0,STARLINK-4558,PAYLOAD,2024-01-02 12:05:40,15.08836907,0.0001359,53.2184,82.9828,97.2837,262.8309,6.6991e-05,7.78e-06,0.0,0 STARLINK-4558,1 53426U 22097AQ  24002.50394453  .00000778  00000-0  66991-4 0  9998,2 53426  53.2184  82.9828 0001359  97.2837 262.8309 15.08836907 78435,6917.89,95.438,540.695,538.815,0.0
53426.0,STARLINK-4558,PAYLOAD,2024-01-03 11:56:27,15.08842026,0.0001421,53.2184,78.5248,111.8397,248.2746,-3.2289e-06,-3.39e-06,0.0,0 STARLINK-4558,1 53426U 22097AQ  24003.49754479 -.00000339  00000-0 -32289-5 0  9994,2 53426  53.2184  78.5248 0001421 111.8397 248.2746 15.08842026 78102,6917.874,95.437,540.722,538.756,0.0
53426.0,STARLINK-4558,PAYLOAD,2024-01-04 11:47:14,15.08839666,0.0001291,53.2184,74.0644,108.447,251.6662,0.00013707,1.894e-05,0.0,0 STARLINK-4558,1 53426U 22097AQ  24004.49114556  .00001894  00000-0  13707-3 0  9998,2 53426  53.2184  74.0644 0001291 108.4470 251.6662 15.08839666 78732,6917.881,95.438,540.64,538.853,0.0
53426.0,STARLINK-4558,PAYLOAD,2024-01-05 03:41:06,15.08849384,0.0001253,53.2183,71.0907,108.0357,252.0772,-7.0159e-05,-1.405e-05,0.0,0 STARLINK-4558,1 53426U 22097AQ  24005.15354727 -.00001405  00000-0 -70159-4 0  9993,2 53426  53.2183  71.0907 0001253 108.0357 252.0772 15.08849384 78351,6917.852,95.437,540.584,538.85,0.0
53426.0,STARLINK-4558,PAYLOAD,2024-01-05 11:38:02,15.08841247,0.0001274,53.2183,69.6018,88.6268,271.487,0.00010091,1.319e-05,0.0,0 STARLINK-4558,1 53426U 22097AQ  24005.48474859  .00001319  00000-0  10091-3 0  9998,2 53426  53.2183  69.6018 0001274  88.6268 271.4870 15.08841247 78886,6917.877,95.437,540.623,538.86,0.0
53426.0,STARLINK-4558,PAYLOAD,2024-01-06 11:28:50,15.08791818,0.0001749,53.2189,65.1425,77.2469,282.8719,0.00086849,0.00013543,0.0,0 STARLINK-4558,1 53426U 22097AQ  24006.47836204  .00013543  00000-0  86849-3 0  9990,2 53426  53.2189  65.1425 0001749  77.2469 282.8719 15.08791818 78559,6918.028,95.441,541.103,538.683,0.0
53426.0,STARLINK-4558,PAYLOAD,2024-01-06 13:04:12,15.08848887,0.0001358,53.2184,64.8443,77.7129,282.4016,0.0001224,1.661e-05,0.0,0 STARLINK-4558,1 53426U 22097AQ  24006.54458447  .00001661  00000-0  12240-3 0  9999,2 53426  53.2184  64.8443 0001358  77.7129 282.4016 15.08848887 78560,6917.853,95.437,540.658,538.779,0.0
53426.0,STARLINK-4558,PAYLOAD,2024-01-07 09:44:13,15.08840471,0.0001542,53.2182,60.978,80.3623,279.7544,5.1708e-05,5.35e-06,0.0,0 STARLINK-4558,1 53426U 22097AQ  24007.40571199  .00000535  00000-0  51708-4 0  9997,2 53426  53.2182  60.9780 0001542  80.3623 279.7544 15.08840471 78693,6917.879,95.438,540.811,538.677,0.0
53426.0,STARLINK-4558,PAYLOAD,2024-01-08 09:35:00,15.08848841,0.0001544,53.219,56.5136,104.5029,255.6134,3.7729e-05,3.13e-06,0.0,0 STARLINK-4558,1 53426U 22097AQ  24008.39930560  .00000313  00000-0  37729-4 0  9998,2 53426  53.2190  56.5136 0001544 104.5029 255.6134 15.08848841 79327,6917.853,95.437,540.786,538.65,0.0
53426.0,STARLINK-4558,PAYLOAD,2024-01-09 12:36:33,15.08844668,0.0001598,53.2183,51.4597,98.9303,261.187,9.9592e-05,1.298e-05,0.0,0 STARLINK-4558,1 53426U 22097AQ  24009.52538655  .00001298  00000-0  99592-4 0  9992,2 53426  53.2183  51.4597 0001598  98.9303 261.1870 15.08844668 79012,6917.866,95.437,540.837,538.626,0.0
